STARLINK-35588          
1 66424U 25259C   25329.08336806 -.00079295  00000+0 -51754-3 0  9998
2 66424  42.9995 151.5127 0001662 270.3801 301.4898 15.75056355  3446
STARLINK-35555          
1 66425U 25259D   25329.08336806 -.00070641  00000+0 -46035-3 0  9991
2 66425  42.9995 151.5064 0001169 282.7482 291.0397 15.75053135  3442
STARLINK-35589          
1 66426U 25259E   25329.08336806 -.00122559  00000+0 -80437-3 0  9992
2 66426  42.9995 151.5027 0002129 273.5041 302.1735 15.75092874  3441
STARLINK-35611          
1 66427U 25259F   25329.08336806 -.00057974  00000+0 -37655-3 0  9995
2 66427  42.9995 151.4974 0002061 272.8089 304.8046 15.75056948  3447
STARLINK-35610          
1 66428U 25259G   25329.08336806 -.00041905  00000+0 -27093-3 0  9998
2 66428  42.9995 151.4926 0001705 275.7751 303.7592 15.75047828  3448
STARLINK-35533          
1 66429U 25259H   25329.08336806 -.00075604  00000+0 -49299-3 0  9994
2 66429  43.0032 151.4861 0002122 277.4114 304.0307 15.75059217  3440
STARLINK-35470          
1 66430U 25259J   25329.08336806 -.00130602  00000+0 -85844-3 0  9992
2 66430  43.0032 151.4823 0001873 273.2366 310.1137 15.75087002  3447
STARLINK-35439          
1 66431U 25259K   25329.08336806 -.00148366  00000+0 -97717-3 0  9991
2 66431  43.0032 151.4764 0001728 263.3609 321.8962 15.75099363  3449
STARLINK-35446          
1 66432U 25259L   25329.08336806 -.00109047  00000+0 -71435-3 0  9994
2 66432  42.9995 151.4719 0001661 272.2538 314.9230 15.75090267  3447
STARLINK-35457          
1 66433U 25259M   25329.08336806 -.00094269  00000+0 -61662-3 0  9995
2 66433  42.9996 151.4683 0001501 278.7173 310.3898 15.75069325  3449
STARLINK-35389          
1 66434U 25259N   25329.08336806 -.00096109  00000+0 -62857-3 0  9998
2 66434  42.9994 151.4633 0002088 278.8707 312.1437 15.75077272  3447
STARLINK-35502          
1 66435U 25259P   25329.08336806 -.00138404  00000+0 -90987-3 0  9999
2 66435  42.9994 151.4593 0002211 268.2413 324.6790 15.75107488  3441
